{
  "type": "FeatureCollection",
  "features": [
    {
      "type": "Feature",
      "properties": {
        "norad_id": 30596,
        "name": "FENGYUN 1C DEB",
        "group": "fengyun-1c-debris",
        "lat": -64.82935015476951,
        "lon": 157.84723822782496,
        "alt_km": 608.7020744098745,
        "timestamp": "2025-12-24T18:55:56.345747+00:00",
        "meta_object_name": "FENGYUN 1C DEB",
        "meta_object_id": "1999-025AMB",
        "meta_epoch": "2025-12-23T23:37:38.936352",
        "meta_mean_motion": 14.34386778,
        "meta_eccentricity": 0.0247086,
        "meta_inclination": 98.4134,
        "meta_ra_of_asc_node": 355.4204,
        "meta_arg_of_pericenter": 255.4531,
        "meta_mean_anomaly": 159.8237,
        "meta_ephemeris_type": 0,
        "meta_classification_type": "U",
        "meta_norad_cat_id": 30596,
        "meta_element_set_no": 999,
        "meta_rev_at_epoch": 98722,
        "meta_bstar": 0.00024575,
        "meta_mean_motion_dot": 9.2e-06,
        "meta_mean_motion_ddot": 0,
        "tle_line1": "1 30596U 99025AMB 25357.98447843  .00000920  00000+0  24575-3 0  9993",
        "tle_line2": "2 30596  98.4134 355.4204 0247086 255.4531 159.8237 14.34386778987223"
      },
      "geometry": {
        "type": "Point",
        "coordinates": [
          157.84723822782496,
          -64.82935015476951
        ]
      }
    },
    {
      "type": "Feature",
      "properties": {
        "norad_id": 30597,
        "name": "FENGYUN 1C DEB",
        "group": "fengyun-1c-debris",
        "lat": 37.530132051497354,
        "lon": 123.82949858395679,
        "alt_km": 553.4571633293881,
        "timestamp": "2025-12-24T18:55:56.345757+00:00",
        "meta_object_name": "FENGYUN 1C DEB",
        "meta_object_id": "1999-025AMC",
        "meta_epoch": "2025-12-22T06:48:12.369600",
        "meta_mean_motion": 14.93233042,
        "meta_eccentricity": 0.0046403,
        "meta_inclination": 98.9414,
        "meta_ra_of_asc_node": 294.0371,
        "meta_arg_of_pericenter": 132.6811,
        "meta_mean_anomaly": 227.8328,
        "meta_ephemeris_type": 0,
        "meta_classification_type": "U",
        "meta_norad_cat_id": 30597,
        "meta_element_set_no": 999,
        "meta_rev_at_epoch": 98679,
        "meta_bstar": 0.0052136953,
        "meta_mean_motion_dot": 0.00056011,
        "meta_mean_motion_ddot": 0,
        "tle_line1": "1 30597U 99025AMC 25356.28347650  .00056011  00000+0  52137-2 0  9997",
        "tle_line2": "2 30597  98.9414 294.0371 0046403 132.6811 227.8328 14.93233042986798"
      },
      "geometry": {
        "type": "Point",
        "coordinates": [
          123.82949858395679,
          37.530132051497354
        ]
      }
    },
    {
      "type": "Feature",
      "properties": {
        "norad_id": 30599,
        "name": "FENGYUN 1C DEB",
        "group": "fengyun-1c-debris",
        "lat": -65.24999769732337,
        "lon": 29.260529687774884,
        "alt_km": 624.3889302780617,
        "timestamp": "2025-12-24T18:55:56.345768+00:00",
        "meta_object_name": "FENGYUN 1C DEB",
        "meta_object_id": "1999-025AME",
        "meta_epoch": "2025-12-22T06:20:23.996832",
        "meta_mean_motion": 14.1973512,
        "meta_eccentricity": 0.03018402,
        "meta_inclination": 98.6022,
        "meta_ra_of_asc_node": 7.6345,
        "meta_arg_of_pericenter": 317.1611,
        "meta_mean_anomaly": 40.6398,
        "meta_ephemeris_type": 0,
        "meta_classification_type": "U",
        "meta_norad_cat_id": 30599,
        "meta_element_set_no": 999,
        "meta_rev_at_epoch": 97302,
        "meta_bstar": 0.00072444523,
        "meta_mean_motion_dot": 2.37e-05,
        "meta_mean_motion_ddot": 0,
        "tle_line1": "1 30599U 99025AME 25356.26416663  .00002370  00000+0  72445-3 0  9992",
        "tle_line2": "2 30599  98.6022   7.6345 0301840 317.1611  40.6398 14.19735120973020"
      },
      "geometry": {
        "type": "Point",
        "coordinates": [
          29.260529687774884,
          -65.24999769732337
        ]
      }
    },
    {
      "type": "Feature",
      "properties": {
        "norad_id": 30600,
        "name": "FENGYUN 1C DEB",
        "group": "fengyun-1c-debris",
        "lat": -53.15138786057824,
        "lon": 111.3500764127458,
        "alt_km": 652.7018812185215,
        "timestamp": "2025-12-24T18:55:56.345782+00:00",
        "meta_object_name": "FENGYUN 1C DEB",
        "meta_object_id": "1999-025AMF",
        "meta_epoch": "2025-12-23T07:42:04.985856",
        "meta_mean_motion": 14.07647201,
        "meta_eccentricity": 0.03263971,
        "meta_inclination": 98.389,
        "meta_ra_of_asc_node": 301.3395,
        "meta_arg_of_pericenter": 217.0052,
        "meta_mean_anomaly": 140.8204,
        "meta_ephemeris_type": 0,
        "meta_classification_type": "U",
        "meta_norad_cat_id": 30600,
        "meta_element_set_no": 999,
        "meta_rev_at_epoch": 94581,
        "meta_bstar": 0.0024293418,
        "meta_mean_motion_dot": 6.648e-05,
        "meta_mean_motion_ddot": 0,
        "tle_line1": "1 30600U 99025AMF 25357.32089104  .00006648  00000+0  24293-2 0  9998",
        "tle_line2": "2 30600  98.3890 301.3395 0326397 217.0052 140.8204 14.07647201945817"
      },
      "geometry": {
        "type": "Point",
        "coordinates": [
          111.3500764127458,
          -53.15138786057824
        ]
      }
    },
    {
      "type": "Feature",
      "properties": {
        "norad_id": 30602,
        "name": "FENGYUN 1C DEB",
        "group": "fengyun-1c-debris",
        "lat": -54.70126777023846,
        "lon": -72.5919732503026,
        "alt_km": 603.4761139750781,
        "timestamp": "2025-12-24T18:55:56.345792+00:00",
        "meta_object_name": "FENGYUN 1C DEB",
        "meta_object_id": "1999-025AMH",
        "meta_epoch": "2025-12-23T11:14:34.423008",
        "meta_mean_motion": 14.92718644,
        "meta_eccentricity": 0.00138052,
        "meta_inclination": 99.0335,
        "meta_ra_of_asc_node": 272.9087,
        "meta_arg_of_pericenter": 91.2419,
        "meta_mean_anomaly": 321.435,
        "meta_ephemeris_type": 0,
        "meta_classification_type": "U",
        "meta_norad_cat_id": 30602,
        "meta_element_set_no": 999,
        "meta_rev_at_epoch": 97965,
        "meta_bstar": 0.0074566759,
        "meta_mean_motion_dot": 0.00077869,
        "meta_mean_motion_ddot": 0,
        "tle_line1": "1 30602U 99025AMH 25357.46845397  .00077869  00000+0  74567-2 0  9991",
        "tle_line2": "2 30602  99.0335 272.9087 0013805  91.2419 321.4350 14.92718644979650"
      },
      "geometry": {
        "type": "Point",
        "coordinates": [
          -72.5919732503026,
          -54.70126777023846
        ]
      }
    },
    {
      "type": "Feature",
      "properties": {
        "norad_id": 30603,
        "name": "FENGYUN 1C DEB",
        "group": "fengyun-1c-debris",
        "lat": -68.8566409683642,
        "lon": 177.96547003563492,
        "alt_km": 926.0887468787723,
        "timestamp": "2025-12-24T18:55:56.345802+00:00",
        "meta_object_name": "FENGYUN 1C DEB",
        "meta_object_id": "1999-025AMJ",
        "meta_epoch": "2025-12-24T00:39:43.625664",
        "meta_mean_motion": 13.84156155,
        "meta_eccentricity": 0.01835139,
        "meta_inclination": 98.4082,
        "meta_ra_of_asc_node": 19.7685,
        "meta_arg_of_pericenter": 174.5808,
        "meta_mean_anomaly": 242.6183,
        "meta_ephemeris_type": 0,
        "meta_classification_type": "U",
        "meta_norad_cat_id": 30603,
        "meta_element_set_no": 999,
        "meta_rev_at_epoch": 95032,
        "meta_bstar": 0.0011941856,
        "meta_mean_motion_dot": 1.479e-05,
        "meta_mean_motion_ddot": 0,
        "tle_line1": "1 30603U 99025AMJ 25358.02758826  .00001479  00000+0  11942-2 0  9997",
        "tle_line2": "2 30603  98.4082  19.7685 0183513 174.5808 242.6183 13.84156155950329"
      },
      "geometry": {
        "type": "Point",
        "coordinates": [
          177.96547003563492,
          -68.8566409683642
        ]
      }
    },
    {
      "type": "Feature",
      "properties": {
        "norad_id": 30604,
        "name": "FENGYUN 1C DEB",
        "group": "fengyun-1c-debris",
        "lat": -3.1667276668562647,
        "lon": -147.371454929167,
        "alt_km": 943.7087851898841,
        "timestamp": "2025-12-24T18:55:56.345812+00:00",
        "meta_object_name": "FENGYUN 1C DEB",
        "meta_object_id": "1999-025AMK",
        "meta_epoch": "2025-12-24T01:19:55.793568",
        "meta_mean_motion": 14.23628801,
        "meta_eccentricity": 0.02090257,
        "meta_inclination": 98.4011,
        "meta_ra_of_asc_node": 32.396,
        "meta_arg_of_pericenter": 333.6984,
        "meta_mean_anomaly": 54.3864,
        "meta_ephemeris_type": 0,
        "meta_classification_type": "U",
        "meta_norad_cat_id": 30604,
        "meta_element_set_no": 999,
        "meta_rev_at_epoch": 98000,
        "meta_bstar": 0.00028628466,
        "meta_mean_motion_dot": 7.71e-06,
        "meta_mean_motion_ddot": 0,
        "tle_line1": "1 30604U 99025AMK 25358.05550687  .00000771  00000+0  28628-3 0  9990",
        "tle_line2": "2 30604  98.4011  32.3960 0209025 333.6984  54.3864 14.23628801980007"
      },
      "geometry": {
        "type": "Point",
        "coordinates": [
          -147.371454929167,
          -3.1667276668562647
        ]
      }
    }
  ]
}